1 49055U 21069A 26161.53997559 .00000000 00000+0 00000+0 0 9997 
2 49055 0.0139 348.7558 0002001 118.3258 276.1001 1.00267877 17877 
1 49056U 21069B 26161.99849971 .00000143 00000+0 00000+0 0 9990 
2 49056 0.0131 11.3115 0002186 63.7562 231.4544 1.00273029 17868 
1 49062U 21071A 26162.07228286 -.00000274 00000+0 00000+0 0 9996 
2 49062 0.0403 239.4996 0001722 247.2391 256.7789 1.00272390 17974 
1 49115U 21077A 26162.24699218 -.00000107 00000+0 00000+0 0 9992 
2 49115 0.4922 86.1721 0002219 335.7432 187.1304 1.00270494 9498 
1 49125U 21080A 26162.07297619 -.00000295 00000+0 00000+0 0 9995 
2 49125 0.0393 98.0849 0001458 9.7699 279.2708 1.00271621 17580 
1 49330U 21094A 26162.26395497 -.00000333 00000+0 00000+0 0 9995 
2 49330 5.0982 61.2132 0049748 168.1386 253.3137 1.00273757 5309 
1 49332U 21095A 26159.54432367 -.00000256 00000+0 00000+0 0 9997 
2 49332 0.0256 35.0415 0001024 45.9352 304.8147 1.00269944 17762 
1 49333U 21095B 26160.27958948 .00000152 00000+0 00000+0 0 9992 
2 49333 0.0174 339.6684 0001405 95.7554 328.3909 1.00270522 17865 
1 49336U 21096A 26161.65003756 -.00000241 00000+0 00000+0 0 9997 
2 49336 37.4481 79.6817 0754393 271.6562 276.0833 1.00257812 16947 
1 49505U 21114A 26162.29248666 -.00000319 00000+0 00000+0 0 9994 
2 49505 0.0332 239.5122 0000425 334.3356 281.2898 1.00272211 16769 
1 49817U 21118A 26159.39289771 -.00000030 00000+0 00000+0 0 9993 
2 49817 0.2970 85.5058 0001402 256.1428 304.8941 1.00273463 16489 
1 50001U 21123A 26162.29543333 -.00000225 00000+0 00000+0 0 9992 
2 50001 0.0167 287.7740 0000300 40.9981 182.2356 1.00271968 16481 
1 50002U 21123B 26161.99352366 -.00000304 00000+0 00000+0 0 9991 
2 50002 0.0172 304.0231 0000378 47.9369 8.0511 1.00272983 6966 
1 50005U 21124A 26162.22927214 .00000003 00000+0 00000+0 0 9997 
2 50005 0.7848 86.2364 0001200 207.0033 219.8565 1.00271840 16563 
1 50212U 21126A 26159.99369375 .00000162 00000+0 00000+0 0 9993 
2 50212 0.0683 338.5411 0003609 18.8248 299.7491 1.00271431 16213 
1 50319U 21128A 26159.71676975 -.00000156 00000+0 00000+0 0 9994 
2 50319 0.0152 289.1871 0000124 257.7540 51.9615 1.00272678 16176 
1 50321U 21129A 26161.70940183 .00000061 00000+0 00000+0 0 9999 
2 50321 3.6568 79.9959 0003324 286.3432 213.6354 1.00038210 16432 
1 50322U 21129B 26161.71295519 -.00000203 00000+0 00000+0 0 9996 
2 50322 3.6565 80.0021 0002697 58.1170 101.4251 1.00490982 16437 
1 50574U 21135A 26162.29387332 -.00000282 00000+0 00000+0 0 9998 
2 50574 0.0509 253.6348 0004521 155.7002 93.3085 1.00270353 16376 
1 51280U 22006A 26157.08795008 -.00000058 00000+0 00000+0 0 9996 
2 51280 0.7690 83.2777 0002840 165.6787 110.1567 1.00289779 16021 
1 51850U 22021A 26162.25433561 .00000114 00000+0 00000+0 0 9996 
2 51850 0.0111 92.7258 0000448 58.7348 62.6989 1.00271509 6537 
1 52255U 22038A 26161.93245963 -.00000336 00000+0 00000+0 0 9992 
2 52255 0.0282 269.5411 0000133 210.4584 240.0136 1.00268520 15356 
1 52817U 22061A 26159.62750225 -.00000042 00000+0 00000+0 0 9991 
2 52817 0.0573 29.1411 0005407 14.7863 71.9873 1.00271880 14651 
1 52903U 22067A 26161.87537047 -.00000147 00000+0 00000+0 0 9994 
2 52903 0.0421 130.5636 0001628 238.5950 288.2032 1.00270239 14544 
1 52904U 22067B 26162.14229273 -.00000224 00000+0 00000+0 0 9991 
2 52904 0.0390 313.2006 0000612 106.1162 342.8888 1.00269414 14581 
1 52933U 22071A 26162.25670122 .00000122 00000+0 00000+0 0 9999 
2 52933 0.0173 298.9231 0001384 129.4633 144.6445 1.00268863 7462 
1 52940U 22073A 26162.00517280 -.00000346 00000+0 00000+0 0 9996 
2 52940 3.6942 78.6049 0002145 239.4075 62.4638 1.00269997 14302 
1 53100U 22078A 26162.19747818 .00000089 00000+0 00000+0 0 9995 
2 53100 0.6568 76.9250 0001599 322.1388 302.1622 1.00271798 14484 
1 53355U 22092A 26162.22294545 -.00000276 00000+0 00000+0 0 9990 
2 53355 3.2687 317.3828 0001832 117.8224 43.6409 1.00270936 14177 
1 53765U 22110A 26160.62755586 .00000034 00000+0 00000+0 0 9996 
2 53765 0.0647 103.4177 0002603 320.1706 63.0435 1.00269352 6766 
1 53813U 22112A 26162.14029939 -.00000132 00000+0 00000+0 0 9997 
2 53813 0.0515 103.2166 0000230 196.0451 92.1307 1.00269783 13780 
