OBJECT_NAME,OBJECT_ID,EPOCH,MEAN_MOTION,ECCENTRICITY,INCLINATION,RA_OF_ASC_NODE,ARG_OF_PERICENTER,MEAN_ANOMALY,EPHEMERIS_TYPE,CLASSIFICATION_TYPE,NORAD_CAT_ID,ELEMENT_SET_NO,REV_AT_EPOCH,BSTAR,MEAN_MOTION_DOT,MEAN_MOTION_DDOT
STAR ONE D2,2021-069A,2026-06-10T12:57:33.890976,1.00267877,.00020013,0.0139,348.7558,118.3258,276.1001,0,U,49055,999,1787,0,0,0
EUTELSAT QUANTUM,2021-069B,2026-06-10T23:57:50.374944,1.00273029,.00021869,0.0131,11.3115,63.7562,231.4544,0,U,49056,999,1786,0,.143E-5,0
ZHONGXING-2E,2021-071A,2026-06-11T01:44:05.239104,1.00272390,.00017221,0.0403,239.4996,247.2391,256.7789,0,U,49062,999,1797,0,-.274E-5,0
TJS-7,2021-077A,2026-06-11T05:55:40.124352,1.00270494,.00022199,0.4922,86.1721,335.7432,187.1304,0,U,49115,999,949,0,-.107E-5,0
CHINASAT 9B,2021-080A,2026-06-11T01:45:05.142816,1.00271621,.00014585,0.0393,98.0849,9.7699,279.2708,0,U,49125,999,1758,0,-.295E-5,0
SHIJIAN-21 (SJ-21),2021-094A,2026-06-11T06:20:05.709408,1.00273757,.00497487,5.0982,61.2132,168.1386,253.3137,0,U,49330,999,530,0,-.333E-5,0
SES-17,2021-095A,2026-06-08T13:03:49.565088,1.00269944,.00010243,0.0256,35.0415,45.9352,304.8147,0,U,49332,999,1776,0,-.256E-5,0
SYRACUSE 4A,2021-095B,2026-06-09T06:42:36.531072,1.00270522,.00014053,0.0174,339.6684,95.7554,328.3909,0,U,49333,999,1786,0,.152E-5,0
QZS-1R (MICHIBIKI-1R),2021-096A,2026-06-10T15:36:03.245184,1.00257812,.07543935,37.4481,79.6817,271.6562,276.0833,0,U,49336,999,1694,0,-.241E-5,0
ZHONGXING-1D,2021-114A,2026-06-11T07:01:10.847424,1.00272211,.00004257,0.0332,239.5122,334.3356,281.2898,0,U,49505,999,1676,0,-.319E-5,0
STPSAT-6,2021-118A,2026-06-08T09:25:46.362144,1.00273463,.00014023,0.2970,85.5058,256.1428,304.8941,0,U,49817,999,1648,0,-.3E-6,0
EXPRESS AMU-7,2021-123A,2026-06-11T07:05:25.439712,1.00271968,.00003009,0.0167,287.7740,40.9981,182.2356,0,U,50001,999,1648,0,-.225E-5,0
EXPRESS AMU-3,2021-123B,2026-06-10T23:50:40.444224,1.00272983,.00003785,0.0172,304.0231,47.9369,8.0511,0,U,50002,999,696,0,-.304E-5,0
TIANLIAN 2-02,2021-124A,2026-06-11T05:30:09.112896,1.00271840,.00012003,0.7848,86.2364,207.0033,219.8565,0,U,50005,999,1656,0,.3E-7,0
TURKSAT 5B,2021-126A,2026-06-08T23:50:55.140000,1.00271431,.00036094,0.0683,338.5411,18.8248,299.7491,0,U,50212,999,1621,0,.162E-5,0
INMARSAT 6-F1,2021-128A,2026-06-08T17:12:08.906400,1.00272678,.00001242,0.0152,289.1871,257.7540,51.9615,0,U,50319,999,1617,0,-.156E-5,0
SHIYAN-12 01 (SY-12 01),2021-129A,2026-06-10T17:01:32.318112,1.00038210,.0003324,3.6568,79.9959,286.3432,213.6354,0,U,50321,999,1643,0,.61E-6,0
SHIYAN-12 02 (SY-12 02),2021-129B,2026-06-10T17:06:39.328416,1.00490982,.0002697,3.6565,80.0021,58.1170,101.4251,0,U,50322,999,1643,0,-.203E-5,0
TJS-9,2021-135A,2026-06-11T07:03:10.654848,1.00270353,.00045214,0.0509,253.6348,155.7002,93.3085,0,U,50574,999,1637,0,-.282E-5,0
USA 324,2022-006A,2026-06-06T02:06:38.886912,1.00289779,.000284,0.7690,83.2777,165.6787,110.1567,0,U,51280,999,1602,0,-.58E-6,0
GOES 18,2022-021A,2026-06-11T06:06:14.596704,1.00271509,.00004486,0.0111,92.7258,58.7348,62.6989,0,U,51850,999,653,0,.114E-5,0
ZHONGXING-6D,2022-038A,2026-06-10T22:22:44.512032,1.00268520,.0000133,0.0282,269.5411,210.4584,240.0136,0,U,52255,999,1535,0,-.336E-5,0
NILESAT 301,2022-061A,2026-06-08T15:03:36.194400,1.00271880,.00054073,0.0573,29.1411,14.7863,71.9873,0,U,52817,999,1465,0,-.42E-6,0
CMS-02 (GSAT-24),2022-067A,2026-06-10T21:00:32.008608,1.00270239,.00016283,0.0421,130.5636,238.5950,288.2032,0,U,52903,999,1454,0,-.147E-5,0
MEASAT 3D,2022-067B,2026-06-11T03:24:54.091872,1.00269414,.00006123,0.0390,313.2006,106.1162,342.8888,0,U,52904,999,1458,0,-.224E-5,0
SES-22,2022-071A,2026-06-11T06:09:38.985408,1.00268863,.00013845,0.0173,298.9231,129.4633,144.6445,0,U,52933,999,746,0,.122E-5,0
WFOV (USA 332),2022-073A,2026-06-11T00:07:26.929920,1.00269997,.00021453,3.6942,78.6049,239.4075,62.4638,0,U,52940,999,1430,0,-.346E-5,0
TIANLIAN 2-03,2022-078A,2026-06-11T04:44:22.114752,1.00271798,.00015998,0.6568,76.9250,322.1388,302.1622,0,U,53100,999,1448,0,.89E-6,0
SBIRS GEO-6 (USA 336),2022-092A,2026-06-11T05:21:02.486880,1.00270936,.00018321,3.2687,317.3828,117.8224,43.6409,0,U,53355,999,1417,0,-.276E-5,0
EUTELSAT KONNECT VHTS,2022-110A,2026-06-09T15:03:40.826304,1.00269352,.00026035,0.0647,103.4177,320.1706,63.0435,0,U,53765,999,676,0,.34E-6,0
ZHONGXING-1E,2022-112A,2026-06-11T03:22:01.867296,1.00269783,.00002302,0.0515,103.2166,196.0451,92.1307,0,U,53813,999,1378,0,-.132E-5,0
